ONEWEB-0570             
1 55149U 23004K   23319.58335648  .00000014  00000+0  00000+0 0  9996
2 55149  87.8738 163.4412 0000820  38.6048 231.8666 13.39131174 45179
ONEWEB-0571             
1 55150U 23004L   23319.58335648  .00000014  00000+0  00000+0 0  9998
2 55150  87.8700 163.4471 0000856 165.0344 118.6637 13.39112300 45189
ONEWEB-0572             
1 55151U 23004M   23319.18926827  .00000217  00000+0  52680-3 0  9990
2 55151  87.9240 193.7055 0001925  88.1631 271.9721 13.17650709 43031
ONEWEB-0573             
1 55152U 23004N   23319.58335648  .00000014  00000+0  00000+0 0  9990
2 55152  87.8827 163.4874 0001328 281.9286 281.5647 13.38618245 45185
ONEWEB-0588             
1 55153U 23004P   23319.58335648  .00000014  00000+0  00000+0 0  9991
2 55153  87.8671 163.4351 0003046 256.0112 254.3973 13.39599389 45170
ONEWEB-0598             
1 55154U 23004Q   23318.46082144  .00000537  00000+0  14795-2 0  9997
2 55154  87.8991 209.0039 0001080 104.4019 255.7229 13.11421169 41944
ONEWEB-0599             
1 55155U 23004R   23318.39196110 -.00000025  00000+0 -97184-4 0  9998
2 55155  87.9243 193.8372 0001507  73.9559 286.1738 13.17644885 42930
ONEWEB-0614             
1 55156U 23004S   23318.45594837  .00000506  00000+0  13912-2 0  9991
2 55156  87.9020 208.9961 0002109  73.5155 286.6205 13.11420757 41884
